{"type":"FeatureCollection","features":[{"type":"Feature","geometry":{"type":"Point","coordinates":[133.190096,34.255109]},"properties":{"name":"粟手地区集会所","address":"愛媛県上島町弓削佐島194","disaster2":1,"disaster3":1,"disaster4":1,"disaster5":1}},{"type":"Feature","geometry":{"type":"Point","coordinates":[133.188262,34.253282]},"properties":{"name":"粟手中央集会所","address":"愛媛県上島町弓削佐島2809","disaster2":1}},{"type":"Feature","geometry":{"type":"Point","coordinates":[133.182096,34.260712]},"properties":{"name":"稲浦集会所広場","address":"愛媛県上島町生名4783","disaster2":1,"disaster3":1,"disaster4":1,"disaster5":1}},{"type":"Feature","geometry":{"type":"Point","coordinates":[133.202577,34.267668]},"properties":{"name":"引野公営住宅集会所","address":"愛媛県上島町弓削引野898-23","disaster2":1,"disaster3":1,"disaster4":1,"disaster5":1}},{"type":"Feature","geometry":{"type":"Point","coordinates":[133.206165,34.257563]},"properties":{"name":"下弓削地区中央集会所","address":"愛媛県上島町弓削下弓削543","disaster2":1,"disaster3":1}},{"type":"Feature","geometry":{"type":"Point","coordinates":[133.157006,34.250226]},"properties":{"name":"岩城構造改善センター（海原集会所）","address":"愛媛県上島町岩城258-5","disaster2":1,"disaster3":1,"disaster4":1}},{"type":"Feature","geometry":{"type":"Point","coordinates":[133.224746,34.288198]},"properties":{"name":"久司浦集会所","address":"愛媛県上島町弓削久司浦758","disaster2":1,"disaster3":1}},{"type":"Feature","geometry":{"type":"Point","coordinates":[133.210867,34.2773]},"properties":{"name":"弓削老人福祉センター","address":"愛媛県上島町弓削上弓削218-2","disaster2":1,"disaster3":1}},{"type":"Feature","geometry":{"type":"Point","coordinates":[133.195232,34.248003]},"properties":{"name":"江尻集会所","address":"愛媛県上島町弓削佐島2477-1","disaster2":1}},{"type":"Feature","geometry":{"type":"Point","coordinates":[133.20569,34.272204]},"properties":{"name":"今出集会所","address":"愛媛県上島町弓削上弓削1859-4","disaster2":1,"disaster3":1,"disaster4":1,"disaster5":1}},{"type":"Feature","geometry":{"type":"Point","coordinates":[133.183029,34.271288]},"properties":{"name":"三分団集会所","address":"愛媛県上島町生名1270","disaster2":1,"disaster3":1,"disaster4":1}},{"type":"Feature","geometry":{"type":"Point","coordinates":[133.219368,34.267077]},"properties":{"name":"狩尾集会所","address":"愛媛県上島町弓削狩尾249-1","disaster2":1,"disaster3":1,"disaster4":1,"disaster5":1}},{"type":"Feature","geometry":{"type":"Point","coordinates":[133.145617,34.274334]},"properties":{"name":"小漕集会所","address":"愛媛県上島町岩城4788","disaster2":1,"disaster3":1,"disaster5":1}},{"type":"Feature","geometry":{"type":"Point","coordinates":[133.179152,34.273087]},"properties":{"name":"生名保育所","address":"愛媛県上島町生名1620","disaster2":1,"disaster4":1}},{"type":"Feature","geometry":{"type":"Point","coordinates":[133.207696,34.255094]},"properties":{"name":"中都・浜都集会所","address":"愛媛県上島町弓削下弓削707","disaster2":1,"disaster3":1,"disaster4":1}},{"type":"Feature","geometry":{"type":"Point","coordinates":[133.200556,34.260667]},"properties":{"name":"堤集会所","address":"愛媛県上島町弓削下弓削6","disaster2":1,"disaster3":1,"disaster4":1,"disaster5":1}},{"type":"Feature","geometry":{"type":"Point","coordinates":[133.203414,34.250923]},"properties":{"name":"土生集会所","address":"愛媛県上島町弓削土生160-1","disaster2":1,"disaster3":1}},{"type":"Feature","geometry":{"type":"Point","coordinates":[133.181105,34.266254]},"properties":{"name":"二分団集会所広場","address":"愛媛県上島町生名279","disaster2":1,"disaster3":1,"disaster4":1}},{"type":"Feature","geometry":{"type":"Point","coordinates":[133.135451,34.265282]},"properties":{"name":"農林漁家・婦人活動促進施設（赤石集会所）","address":"愛媛県上島町岩城3817-1","disaster2":1,"disaster3":1,"disaster4":1}},{"type":"Feature","geometry":{"type":"Point","coordinates":[133.321783,34.178201]},"properties":{"name":"魚島開発総合センター（３階～５階）","address":"愛媛県上島町魚島１番耕地1362-1","disaster2":1,"disaster3":1,"disaster4":1,"disaster5":1}},{"type":"Feature","geometry":{"type":"Point","coordinates":[133.319377,34.179335]},"properties":{"name":"魚島保健福祉センター","address":"愛媛県上島町魚島１番耕地1367-2","disaster2":1,"disaster4":1}},{"type":"Feature","geometry":{"type":"Point","coordinates":[133.272911,34.192206]},"properties":{"name":"高井神集会所","address":"愛媛県上島町魚島２番耕地130","disaster2":1,"disaster3":1,"disaster5":1}},{"type":"Feature","geometry":{"type":"Point","coordinates":[133.320886,34.176481]},"properties":{"name":"大木地区集会所","address":"愛媛県上島町魚島１番耕地","disaster2":1}},{"type":"Feature","geometry":{"type":"Point","coordinates":[133.161667,34.259826]},"properties":{"name":"高齢者活動促進施設（船越集会所）","address":"愛媛県上島町岩城6114","disaster3":1,"disaster4":1,"disaster5":1}},{"type":"Feature","geometry":{"type":"Point","coordinates":[133.203841,34.253993]},"properties":{"name":"太田集会所","address":"愛媛県上島町弓削太田137","disaster3":1,"disaster5":1}},{"type":"Feature","geometry":{"type":"Point","coordinates":[133.231556,34.276897]},"properties":{"name":"大谷集会所","address":"愛媛県上島町弓削大谷22","disaster3":1,"disaster4":1,"disaster5":1}},{"type":"Feature","geometry":{"type":"Point","coordinates":[133.215551,34.283832]},"properties":{"name":"沢津集会所","address":"愛媛県上島町弓削沢津45","disaster3":1}},{"type":"Feature","geometry":{"type":"Point","coordinates":[133.153865,34.270958]},"properties":{"name":"長江集会所","address":"愛媛県上島町岩城5329","disaster3":1,"disaster5":1}},{"type":"Feature","geometry":{"type":"Point","coordinates":[133.226152,34.28989]},"properties":{"name":"田林集会所","address":"愛媛県上島町弓削久司浦549","disaster3":1}},{"type":"Feature","geometry":{"type":"Point","coordinates":[133.19302,34.253519]},"properties":{"name":"Ｓ道","address":"愛媛県上島町弓削佐島３９２地先","disaster4":1,"disaster5":1}},{"type":"Feature","geometry":{"type":"Point","coordinates":[133.173128,34.261144]},"properties":{"name":"いきなスポレク公園野球場","address":"愛媛県上島町生名4528","disaster4":1,"disaster5":1}},{"type":"Feature","geometry":{"type":"Point","coordinates":[133.202819,34.265693]},"properties":{"name":"ほうじ山","address":"愛媛県上島町弓削引野859","disaster4":1,"disaster5":1}},{"type":"Feature","geometry":{"type":"Point","coordinates":[133.150185,34.270144]},"properties":{"name":"もみじ池下県道（長江）","address":"愛媛県上島町岩城もみじ池下","disaster4":1,"disaster5":1}},{"type":"Feature","geometry":{"type":"Point","coordinates":[133.188833,34.248999]},"properties":{"name":"シズネ池埋立て地","address":"愛媛県上島町弓削佐島878-1","disaster4":1,"disaster5":1}},{"type":"Feature","geometry":{"type":"Point","coordinates":[133.134692,34.263326]},"properties":{"name":"愛媛県産地育成室岩城駐在所広場（旧県立果樹試験場広場）","address":"愛媛県上島町岩城3570","disaster4":1,"disaster5":1}},{"type":"Feature","geometry":{"type":"Point","coordinates":[133.155166,34.249551]},"properties":{"name":"円満寺境内","address":"愛媛県上島町岩城375","disaster4":1,"disaster5":1}},{"type":"Feature","geometry":{"type":"Point","coordinates":[133.152639,34.2492]},"properties":{"name":"延命堂下（海原）","address":"愛媛県上島町岩城延命堂下","disaster4":1,"disaster5":1}},{"type":"Feature","geometry":{"type":"Point","coordinates":[133.1547,34.25097]},"properties":{"name":"黄幡さん横町道（海原）","address":"愛媛県上島町岩城黄幡横","disaster4":1,"disaster5":1}},{"type":"Feature","geometry":{"type":"Point","coordinates":[133.179596,34.27259]},"properties":{"name":"丸山生協付近","address":"愛媛県上島町生名1642-1","disaster4":1}},{"type":"Feature","geometry":{"type":"Point","coordinates":[133.140497,34.244974]},"properties":{"name":"岩城小学校グランド","address":"愛媛県上島町岩城2263-1","disaster4":1}},{"type":"Feature","geometry":{"type":"Point","coordinates":[133.16137,34.266035]},"properties":{"name":"岩城総合運動場","address":"愛媛県上島町岩城5585","disaster4":1}},{"type":"Feature","geometry":{"type":"Point","coordinates":[133.148294,34.247897]},"properties":{"name":"岩城中学校グランド","address":"愛媛県上島町岩城1218-1","disaster4":1,"disaster5":1}},{"type":"Feature","geometry":{"type":"Point","coordinates":[133.150445,34.245653]},"properties":{"name":"岩城八幡神社境内","address":"愛媛県上島町岩城834-1","disaster4":1,"disaster5":1}},{"type":"Feature","geometry":{"type":"Point","coordinates":[133.15843,34.265166]},"properties":{"name":"岩城分校上県道","address":"愛媛県上島町岩城分校上","disaster4":1,"disaster5":1}},{"type":"Feature","geometry":{"type":"Point","coordinates":[133.142071,34.247817]},"properties":{"name":"岩城保健センター駐車場","address":"愛媛県上島町岩城2239","disaster4":1,"disaster5":1}},{"type":"Feature","geometry":{"type":"Point","coordinates":[133.146781,34.269212]},"properties":{"name":"岩城北集会所広場","address":"愛媛県上島町岩城5159-1","disaster4":1,"disaster5":1}},{"type":"Feature","geometry":{"type":"Point","coordinates":[133.212944,34.274825]},"properties":{"name":"願成寺境内","address":"愛媛県上島町弓削上弓削502","disaster4":1,"disaster5":1}},{"type":"Feature","geometry":{"type":"Point","coordinates":[133.201128,34.262428]},"properties":{"name":"弓削高等学校グランド","address":"愛媛県上島町弓削明神305","disaster4":1,"disaster5":1}},{"type":"Feature","geometry":{"type":"Point","coordinates":[133.200942,34.267758]},"properties":{"name":"弓削小学校駐車場","address":"愛媛県上島町弓削引野1228-1","disaster4":1,"disaster5":1}},{"type":"Feature","geometry":{"type":"Point","coordinates":[133.200802,34.261604]},"properties":{"name":"弓削浄化センター","address":"愛媛県上島町弓削明神333","disaster4":1,"disaster5":1}},{"type":"Feature","geometry":{"type":"Point","coordinates":[133.202614,34.25236]},"properties":{"name":"弓削大橋記念公園","address":"愛媛県上島町弓削土生28-1","disaster4":1,"disaster5":1}},{"type":"Feature","geometry":{"type":"Point","coordinates":[133.195099,34.255071]},"properties":{"name":"弓削大橋佐島入口道路","address":"愛媛県上島町弓削佐島40-2","disaster4":1,"disaster5":1}},{"type":"Feature","geometry":{"type":"Point","coordinates":[133.175897,34.271556]},"properties":{"name":"恵生公営住宅Ｂ団地駐車場","address":"愛媛県上島町生名3736","disaster4":1,"disaster5":1}},{"type":"Feature","geometry":{"type":"Point","coordinates":[133.226866,34.287869]},"properties":{"name":"鯨池公園","address":"愛媛県上島町弓削久司浦832","disaster4":1,"disaster5":1}},{"type":"Feature","geometry":{"type":"Point","coordinates":[133.180134,34.266032]},"properties":{"name":"県道横浜生名港線中腹（大松峠：二分団側）","address":"愛媛県上島町生名大松峠","disaster4":1,"disaster5":1}},{"type":"Feature","geometry":{"type":"Point","coordinates":[133.144445,34.247021]},"properties":{"name":"厳島神社広場","address":"愛媛県上島町岩城1913-1","disaster4":1}},{"type":"Feature","geometry":{"type":"Point","coordinates":[133.187102,34.267977]},"properties":{"name":"厳島銅像","address":"愛媛県上島町生名573","disaster4":1,"disaster5":1}},{"type":"Feature","geometry":{"type":"Point","coordinates":[133.157091,34.252266]},"properties":{"name":"今井製作所上県道（海原）","address":"愛媛県上島町岩城今井製作所上","disaster4":1,"disaster5":1}},{"type":"Feature","geometry":{"type":"Point","coordinates":[133.191912,34.246907]},"properties":{"name":"佐島浄化センター","address":"愛媛県上島町弓削佐島2518","disaster4":1}},{"type":"Feature","geometry":{"type":"Point","coordinates":[133.188589,34.252148]},"properties":{"name":"佐島体育館グランド","address":"愛媛県上島町弓削佐島583","disaster4":1,"disaster5":1}},{"type":"Feature","geometry":{"type":"Point","coordinates":[133.185727,34.251518]},"properties":{"name":"佐島八幡神社境内","address":"愛媛県上島町弓削佐島638","disaster4":1,"disaster5":1}},{"type":"Feature","geometry":{"type":"Point","coordinates":[133.206427,34.256032]},"properties":{"name":"山王山前神寺","address":"愛媛県上島町弓削下弓削600","disaster4":1,"disaster5":1}},{"type":"Feature","geometry":{"type":"Point","coordinates":[133.226876,34.290085]},"properties":{"name":"寺岡宅上道路","address":"愛媛県上島町弓削久司浦５４１地先","disaster4":1,"disaster5":1}},{"type":"Feature","geometry":{"type":"Point","coordinates":[133.20216,34.263407]},"properties":{"name":"自性寺境外地（慶雲庵跡）","address":"愛媛県上島町弓削明神227","disaster4":1,"disaster5":1}},{"type":"Feature","geometry":{"type":"Point","coordinates":[133.207119,34.258685]},"properties":{"name":"自性寺駐車場","address":"愛媛県上島町弓削藤谷832-1","disaster4":1,"disaster5":1}},{"type":"Feature","geometry":{"type":"Point","coordinates":[133.202759,34.242078]},"properties":{"name":"小川レミコン駐車場","address":"愛媛県上島町弓削鎌田250-3","disaster4":1,"disaster5":1}},{"type":"Feature","geometry":{"type":"Point","coordinates":[133.159639,34.261124]},"properties":{"name":"小船越県道（船越）","address":"愛媛県上島町岩城小船越","disaster4":1,"disaster5":1}},{"type":"Feature","geometry":{"type":"Point","coordinates":[133.14875,34.278501]},"properties":{"name":"小漕終末処理場上農道","address":"愛媛県上島町岩城小漕終末処理場","disaster4":1,"disaster5":1}},{"type":"Feature","geometry":{"type":"Point","coordinates":[133.15137,34.247387]},"properties":{"name":"小村駐車場","address":"愛媛県上島町岩城749-1","disaster4":1,"disaster5":1}},{"type":"Feature","geometry":{"type":"Point","coordinates":[133.136618,34.250797]},"properties":{"name":"祥雲寺境内（西部）","address":"愛媛県上島町岩城3019-1","disaster4":1,"disaster5":1}},{"type":"Feature","geometry":{"type":"Point","coordinates":[133.150306,34.247027]},"properties":{"name":"浄光寺境内","address":"愛媛県上島町岩城855","disaster4":1,"disaster5":1}},{"type":"Feature","geometry":{"type":"Point","coordinates":[133.212649,34.274012]},"properties":{"name":"新池フラワー公園","address":"愛媛県上島町弓削上弓削498","disaster4":1,"disaster5":1}},{"type":"Feature","geometry":{"type":"Point","coordinates":[133.20468,34.251278]},"properties":{"name":"深坂池親水公園","address":"愛媛県上島町弓削日比2-4","disaster4":1,"disaster5":1}},{"type":"Feature","geometry":{"type":"Point","coordinates":[133.179396,34.267915]},"properties":{"name":"正福寺境内","address":"愛媛県上島町生名813","disaster4":1,"disaster5":1}},{"type":"Feature","geometry":{"type":"Point","coordinates":[133.186464,34.263869]},"properties":{"name":"生名港埠頭用地","address":"愛媛県上島町生名67-2","disaster4":1}},{"type":"Feature","geometry":{"type":"Point","coordinates":[133.184275,34.268979]},"properties":{"name":"生名小学校グランド","address":"愛媛県上島町生名965","disaster4":1}},{"type":"Feature","geometry":{"type":"Point","coordinates":[133.18494,34.268225]},"properties":{"name":"生名総合支所駐車場","address":"愛媛県上島町生名620","disaster4":1}},{"type":"Feature","geometry":{"type":"Point","coordinates":[133.183339,34.269296]},"properties":{"name":"生名八幡神社境内","address":"愛媛県上島町生名946","disaster4":1,"disaster5":1}},{"type":"Feature","geometry":{"type":"Point","coordinates":[133.176485,34.279859]},"properties":{"name":"生名保健センター・生名老人デイサービスセンター駐車場","address":"愛媛県上島町生名2133-4","disaster4":1}},{"type":"Feature","geometry":{"type":"Point","coordinates":[133.172442,34.273241]},"properties":{"name":"西浦地区集会所付近","address":"愛媛県上島町生名３５５１外","disaster4":1}},{"type":"Feature","geometry":{"type":"Point","coordinates":[133.173075,34.27446]},"properties":{"name":"西浦遊園地","address":"愛媛県上島町生名3313","disaster4":1}},{"type":"Feature","geometry":{"type":"Point","coordinates":[133.135889,34.248433]},"properties":{"name":"西部入口県道（西部）","address":"愛媛県上島町岩城谷地区上農道","disaster4":1,"disaster5":1}},{"type":"Feature","geometry":{"type":"Point","coordinates":[133.133571,34.253654]},"properties":{"name":"西部八幡神社広場","address":"愛媛県上島町岩城3295","disaster4":1,"disaster5":1}},{"type":"Feature","geometry":{"type":"Point","coordinates":[133.139678,34.246364]},"properties":{"name":"石ヶ坪住宅集会所前広場","address":"愛媛県上島町岩城2392","disaster4":1,"disaster5":1}},{"type":"Feature","geometry":{"type":"Point","coordinates":[133.206321,34.259693]},"properties":{"name":"石山バイパス","address":"愛媛県上島町弓削藤谷812","disaster4":1,"disaster5":1}},{"type":"Feature","geometry":{"type":"Point","coordinates":[133.212376,34.277637]},"properties":{"name":"石拾い","address":"愛媛県上島町弓削上弓削145-1","disaster4":1,"disaster5":1}},{"type":"Feature","geometry":{"type":"Point","coordinates":[133.147929,34.25085]},"properties":{"name":"積善山入口町道（高原）","address":"愛媛県上島町岩城積善山入口","disaster4":1,"disaster5":1}},{"type":"Feature","geometry":{"type":"Point","coordinates":[133.131171,34.256809]},"properties":{"name":"先新城県道（西部）","address":"愛媛県上島町岩城先新城","disaster4":1,"disaster5":1}},{"type":"Feature","geometry":{"type":"Point","coordinates":[133.176808,34.273768]},"properties":{"name":"泉農道中腹（丸山ー西浦：四分団側）","address":"愛媛県上島町生名泉農道四分団","disaster4":1,"disaster5":1}},{"type":"Feature","geometry":{"type":"Point","coordinates":[133.174727,34.274553]},"properties":{"name":"泉農道中腹（丸山ー西浦：六分団側）","address":"愛媛県上島町生名泉農道六分団","disaster4":1,"disaster5":1}},{"type":"Feature","geometry":{"type":"Point","coordinates":[133.161304,34.259]},"properties":{"name":"船越橋上県道三叉路","address":"愛媛県上島町岩城船越橋上","disaster4":1,"disaster5":1}},{"type":"Feature","geometry":{"type":"Point","coordinates":[133.148712,34.247169]},"properties":{"name":"太平寺境内","address":"愛媛県上島町岩城1262","disaster4":1,"disaster5":1}},{"type":"Feature","geometry":{"type":"Point","coordinates":[133.14363,34.247394]},"properties":{"name":"谷地区上農道（谷）","address":"愛媛県上島町岩城谷地区上農道","disaster4":1,"disaster5":1}},{"type":"Feature","geometry":{"type":"Point","coordinates":[133.210122,34.250337]},"properties":{"name":"中崎公園","address":"愛媛県上島町弓削日比366","disaster4":1,"disaster5":1}},{"type":"Feature","geometry":{"type":"Point","coordinates":[133.204562,34.268232]},"properties":{"name":"著神社境内","address":"愛媛県上島町弓削引野443","disaster4":1,"disaster5":1}},{"type":"Feature","geometry":{"type":"Point","coordinates":[133.207146,34.257933]},"properties":{"name":"潮音寺境内","address":"愛媛県上島町弓削下弓削400","disaster4":1,"disaster5":1}},{"type":"Feature","geometry":{"type":"Point","coordinates":[133.181105,34.270386]},"properties":{"name":"町道岡庄・中後線","address":"愛媛県上島町生名岡庄中後線","disaster4":1,"disaster5":1}},{"type":"Feature","geometry":{"type":"Point","coordinates":[133.145429,34.247631]},"properties":{"name":"町道大谷厳島線下（大谷）","address":"愛媛県上島町岩城大谷厳島線下","disaster4":1,"disaster5":1}},{"type":"Feature","geometry":{"type":"Point","coordinates":[133.145241,34.248903]},"properties":{"name":"町道大谷厳島線上（大谷）","address":"愛媛県上島町岩城大谷厳島線上","disaster4":1,"disaster5":1}},{"type":"Feature","geometry":{"type":"Point","coordinates":[133.177146,34.272372]},"properties":{"name":"町道中の谷・岡庄線（尾又ー丸山：四分団側）","address":"愛媛県上島町生名尾又丸山","disaster4":1,"disaster5":1}},{"type":"Feature","geometry":{"type":"Point","coordinates":[133.18029,34.271148]},"properties":{"name":"町道尾又恵生２号線　（尾又ー恵生：三分団側）","address":"愛媛県上島町生名尾又恵生2","disaster4":1,"disaster5":1}},{"type":"Feature","geometry":{"type":"Point","coordinates":[133.174416,34.275687]},"properties":{"name":"町道立石・後新開線中腹（西浦峠：四分団側）","address":"愛媛県上島町生名西浦峠四分団","disaster4":1,"disaster5":1}},{"type":"Feature","geometry":{"type":"Point","coordinates":[133.176165,34.275581]},"properties":{"name":"町道立石・後新開線中腹（西浦峠：六分団側）","address":"愛媛県上島町生名西浦峠六分団","disaster4":1,"disaster5":1}},{"type":"Feature","geometry":{"type":"Point","coordinates":[133.175323,34.278759]},"properties":{"name":"町道立石・大江線中腹（北立石ー西浦：四分団側）","address":"愛媛県上島町生名立石大江線","disaster4":1,"disaster5":1}},{"type":"Feature","geometry":{"type":"Point","coordinates":[133.172453,34.27766]},"properties":{"name":"町道立石・大江線中腹（北立石ー西浦：六分団側）","address":"愛媛県上島町生名立石大江線","disaster4":1,"disaster5":1}},{"type":"Feature","geometry":{"type":"Point","coordinates":[133.217357,34.283114]},"properties":{"name":"長尾寺境内","address":"愛媛県上島町弓削沢津193","disaster4":1,"disaster5":1}},{"type":"Feature","geometry":{"type":"Point","coordinates":[133.149785,34.248016]},"properties":{"name":"鶴山","address":"愛媛県上島町岩城875","disaster4":1,"disaster5":1}},{"type":"Feature","geometry":{"type":"Point","coordinates":[133.20451,34.250218]},"properties":{"name":"定光寺境内","address":"愛媛県上島町弓削土生241","disaster4":1,"disaster5":1}},{"type":"Feature","geometry":{"type":"Point","coordinates":[133.143739,34.245405]},"properties":{"name":"島の神遊園地","address":"愛媛県上島町岩城2122-1","disaster4":1,"disaster5":1}},{"type":"Feature","geometry":{"type":"Point","coordinates":[133.226768,34.286996]},"properties":{"name":"東泉寺境内","address":"愛媛県上島町弓削久司浦988","disaster4":1,"disaster5":1}},{"type":"Feature","geometry":{"type":"Point","coordinates":[133.18333,34.2705]},"properties":{"name":"特別養護老人ホーム海光園広場","address":"愛媛県上島町生名1268-1","disaster4":1}},{"type":"Feature","geometry":{"type":"Point","coordinates":[133.214951,34.282744]},"properties":{"name":"浜の上","address":"愛媛県上島町弓削沢津458","disaster4":1,"disaster5":1}},{"type":"Feature","geometry":{"type":"Point","coordinates":[133.139131,34.266847]},"properties":{"name":"敷田県道（赤石）","address":"愛媛県上島町岩城敷田","disaster4":1,"disaster5":1}},{"type":"Feature","geometry":{"type":"Point","coordinates":[133.178107,34.27598]},"properties":{"name":"立石多目的広場","address":"愛媛県上島町生名1881-3","disaster4":1}},{"type":"Feature","geometry":{"type":"Point","coordinates":[133.319731,34.178337]},"properties":{"name":"亀居八幡神社境内","address":"愛媛県上島町魚島１番耕地1","disaster4":1,"disaster5":1}},{"type":"Feature","geometry":{"type":"Point","coordinates":[133.319951,34.177187]},"properties":{"name":"魚島小・中学校グランド","address":"愛媛県上島町魚島１番耕地828","disaster4":1,"disaster5":1}},{"type":"Feature","geometry":{"type":"Point","coordinates":[133.320202,34.178953]},"properties":{"name":"緊急避難用地","address":"愛媛県上島町魚島１番耕地1366","disaster4":1}},{"type":"Feature","geometry":{"type":"Point","coordinates":[133.272258,34.191961]},"properties":{"name":"高井神小・中学校グランド","address":"愛媛県上島町魚島２番耕地151","disaster4":1,"disaster5":1}},{"type":"Feature","geometry":{"type":"Point","coordinates":[133.323626,34.177733]},"properties":{"name":"春日住宅","address":"愛媛県上島町魚島１番耕地234","disaster4":1,"disaster5":1}},{"type":"Feature","geometry":{"type":"Point","coordinates":[133.320531,34.177369]},"properties":{"name":"大木地区町道井戸前","address":"愛媛県上島町魚島１番耕地１１５１－８地先","disaster4":1,"disaster5":1}},{"type":"Feature","geometry":{"type":"Point","coordinates":[133.320708,34.178022]},"properties":{"name":"道福寺境内","address":"愛媛県上島町魚島１番耕地100","disaster5":1}}]}