{"type":"FeatureCollection","features":[{"type":"Feature","geometry":{"type":"Point","coordinates":[133.173021,34.262106]},"properties":{"name":"いきなスポレク公園体育館","address":"愛媛県上島町生名4528"}},{"type":"Feature","geometry":{"type":"Point","coordinates":[133.201596,34.259844]},"properties":{"name":"せとうち交流館","address":"愛媛県上島町弓削下弓削1037-2"}},{"type":"Feature","geometry":{"type":"Point","coordinates":[133.134633,34.263136]},"properties":{"name":"愛媛県東予地方局産業経済部今治支局地域農業育成室指導員岩城駐在所庁舎","address":"愛媛県上島町岩城3570"}},{"type":"Feature","geometry":{"type":"Point","coordinates":[133.182028,34.261635]},"properties":{"name":"稲浦集会所","address":"愛媛県上島町生名4783"}},{"type":"Feature","geometry":{"type":"Point","coordinates":[133.174016,34.260804]},"properties":{"name":"蛙石荘","address":"愛媛県上島町生名4576"}},{"type":"Feature","geometry":{"type":"Point","coordinates":[133.148072,34.247462]},"properties":{"name":"岩城開発総合センター","address":"愛媛県上島町岩城1254"}},{"type":"Feature","geometry":{"type":"Point","coordinates":[133.141793,34.24679]},"properties":{"name":"岩城高齢者交流会館","address":"愛媛県上島町岩城2215-4"}},{"type":"Feature","geometry":{"type":"Point","coordinates":[133.141695,34.247869]},"properties":{"name":"岩城高齢者生活福祉センター","address":"愛媛県上島町岩城2239"}},{"type":"Feature","geometry":{"type":"Point","coordinates":[133.13994,34.245339]},"properties":{"name":"岩城小学校（体育館）","address":"愛媛県上島町岩城2263-1"}},{"type":"Feature","geometry":{"type":"Point","coordinates":[133.160838,34.266792]},"properties":{"name":"岩城総合運動場体育館","address":"愛媛県上島町岩城5585"}},{"type":"Feature","geometry":{"type":"Point","coordinates":[133.147791,34.247645]},"properties":{"name":"岩城中学校","address":"愛媛県上島町岩城1218"}},{"type":"Feature","geometry":{"type":"Point","coordinates":[133.142097,34.247683]},"properties":{"name":"岩城保健センター","address":"愛媛県上島町岩城2239"}},{"type":"Feature","geometry":{"type":"Point","coordinates":[133.146734,34.26928]},"properties":{"name":"岩城北集会所","address":"愛媛県上島町岩城5159"}},{"type":"Feature","geometry":{"type":"Point","coordinates":[133.186548,34.252445]},"properties":{"name":"弓削開発総合センター","address":"愛媛県上島町弓削佐島608-2"}},{"type":"Feature","geometry":{"type":"Point","coordinates":[133.201263,34.262707]},"properties":{"name":"弓削高等学校体育館・武道場","address":"愛媛県上島町弓削明神305"}},{"type":"Feature","geometry":{"type":"Point","coordinates":[133.210636,34.278763]},"properties":{"name":"弓削高齢者生活福祉センター（高浜荘）","address":"愛媛県上島町弓削上弓削1907-1"}},{"type":"Feature","geometry":{"type":"Point","coordinates":[133.206514,34.25281]},"properties":{"name":"弓削商船高等専門学校体育館","address":"愛媛県上島町弓削下弓削1000"}},{"type":"Feature","geometry":{"type":"Point","coordinates":[133.200013,34.267435]},"properties":{"name":"弓削小学校（体育館）","address":"愛媛県上島町弓削引野1219"}},{"type":"Feature","geometry":{"type":"Point","coordinates":[133.200039,34.265641]},"properties":{"name":"弓削体育館","address":"愛媛県上島町弓削明神１地先"}},{"type":"Feature","geometry":{"type":"Point","coordinates":[133.210662,34.278892]},"properties":{"name":"弓削保健センター","address":"愛媛県上島町弓削上弓削1907-1"}},{"type":"Feature","geometry":{"type":"Point","coordinates":[133.210867,34.2773]},"properties":{"name":"弓削老人福祉センター","address":"愛媛県上島町弓削上弓削218-2"}},{"type":"Feature","geometry":{"type":"Point","coordinates":[133.183043,34.271289]},"properties":{"name":"三分団集会所","address":"愛媛県上島町生名1270"}},{"type":"Feature","geometry":{"type":"Point","coordinates":[133.145576,34.274457]},"properties":{"name":"小漕集会所","address":"愛媛県上島町岩城4788"}},{"type":"Feature","geometry":{"type":"Point","coordinates":[133.188898,34.251767]},"properties":{"name":"上島町佐島体育館","address":"愛媛県上島町弓削佐島583"}},{"type":"Feature","geometry":{"type":"Point","coordinates":[133.177855,34.276879]},"properties":{"name":"生名開発総合センター","address":"愛媛県上島町生名1885"}},{"type":"Feature","geometry":{"type":"Point","coordinates":[133.184983,34.268478]},"properties":{"name":"生名公民館","address":"愛媛県上島町生名620"}},{"type":"Feature","geometry":{"type":"Point","coordinates":[133.18391,34.2689]},"properties":{"name":"生名小学校（体育館）","address":"愛媛県上島町生名965"}},{"type":"Feature","geometry":{"type":"Point","coordinates":[133.184286,34.269007]},"properties":{"name":"生名小学校屋内運動場","address":"愛媛県上島町生名965"}},{"type":"Feature","geometry":{"type":"Point","coordinates":[133.181941,34.271637]},"properties":{"name":"生名体育館","address":"愛媛県上島町生名1283"}},{"type":"Feature","geometry":{"type":"Point","coordinates":[133.17754,34.277708]},"properties":{"name":"生名地域交流センター","address":"愛媛県上島町生名2111-2"}},{"type":"Feature","geometry":{"type":"Point","coordinates":[133.176474,34.27986]},"properties":{"name":"生名保健センター","address":"愛媛県上島町生名2133-4"}},{"type":"Feature","geometry":{"type":"Point","coordinates":[133.176493,34.279783]},"properties":{"name":"生名老人デイサービスセンター","address":"愛媛県上島町生名2133-3"}},{"type":"Feature","geometry":{"type":"Point","coordinates":[133.172169,34.273203]},"properties":{"name":"西浦集会所","address":"愛媛県上島町生名３５５０－１外"}},{"type":"Feature","geometry":{"type":"Point","coordinates":[133.149602,34.248765]},"properties":{"name":"知新館","address":"愛媛県上島町岩城875"}},{"type":"Feature","geometry":{"type":"Point","coordinates":[133.183133,34.270461]},"properties":{"name":"特別養護老人ホーム海光園","address":"愛媛県上島町生名1268-1"}},{"type":"Feature","geometry":{"type":"Point","coordinates":[133.181101,34.266261]},"properties":{"name":"二分団集会所","address":"愛媛県上島町生名279"}},{"type":"Feature","geometry":{"type":"Point","coordinates":[133.321598,34.178461]},"properties":{"name":"魚島開発総合センター","address":"愛媛県上島町魚島１番耕地1362-1"}},{"type":"Feature","geometry":{"type":"Point","coordinates":[133.319868,34.177283]},"properties":{"name":"魚島小・中学校（体育館）","address":"愛媛県上島町魚島１番耕地819"}},{"type":"Feature","geometry":{"type":"Point","coordinates":[133.320197,34.178601]},"properties":{"name":"魚島西集会所","address":"愛媛県上島町魚島１番耕地124-3"}},{"type":"Feature","geometry":{"type":"Point","coordinates":[133.323573,34.178702]},"properties":{"name":"魚島東集会所","address":"愛媛県上島町魚島１番耕地1368-5"}},{"type":"Feature","geometry":{"type":"Point","coordinates":[133.318649,34.179608]},"properties":{"name":"魚島保健福祉センター","address":"愛媛県上島町魚島１番耕地1367-2"}},{"type":"Feature","geometry":{"type":"Point","coordinates":[133.273784,34.191953]},"properties":{"name":"高井神公民館","address":"愛媛県上島町魚島２番耕地436"}},{"type":"Feature","geometry":{"type":"Point","coordinates":[133.273126,34.19196]},"properties":{"name":"高井神集会所","address":"愛媛県上島町魚島２番耕地130"}},{"type":"Feature","geometry":{"type":"Point","coordinates":[133.272112,34.19192]},"properties":{"name":"高井神小・中学校","address":"愛媛県上島町魚島２番耕地151"}}]}